start=new Date('2022-01-03T00:00:00.000Z').valueOf();
sats=[{"CENTER_NAME":"EARTH","RCS_SIZE":"LARGE","OBJECT_NAME":"STARLINK-1437","FILE":"3255249","GP_ID":"192942682","MEAN_ANOMALY":"279.3986","MEAN_ELEMENT_THEORY":"SGP4","LAUNCH_DATE":"2020-06-04","TLE_LINE1":"1 45714U 20035BK  22002.78155617  .00002859  00000-0  21071-3 0  9995","SITE":"AFETR","CLASSIFICATION_TYPE":"U","COUNTRY_CODE":"US","REV_AT_EPOCH":"8901","ARG_OF_PERICENTER":"80.7154","MEAN_MOTION_DDOT":"0.0000000000000","INCLINATION":"53.0548","MEAN_MOTION":"15.06405335","TLE_LINE2":"2 45714  53.0548  51.1834 0001336  80.7154 279.3986 15.06405335 89012","APOAPSIS":"548.122","EPHEMERIS_TYPE":"0","NORAD_CAT_ID":"45714","REF_FRAME":"TEME","OBJECT_ID":"2020-035BK","TIME_SYSTEM":"UTC","PERIOD":"95.592","RA_OF_ASC_NODE":"51.1834","SEMIMAJOR_AXIS":"6925.332","DECAY_DATE":null,"EPOCH":"2022-01-02T18:45:26.453088","BSTAR":"0.00021071000000","MEAN_MOTION_DOT":"0.00002859","ECCENTRICITY":"0.00013360","ELEMENT_SET_NO":"999","PERIAPSIS":"546.272","OBJECT_TYPE":"PAYLOAD"},{"OBJECT_ID":"2020-035BM","TIME_SYSTEM":"UTC","SEMIMAJOR_AXIS":"6710.950","PERIOD":"91.188","RA_OF_ASC_NODE":"234.0412","DECAY_DATE":null,"EPOCH":"2022-01-02T21:08:48.914880","EPHEMERIS_TYPE":"0","NORAD_CAT_ID":"45716","REF_FRAME":"TEME","ELEMENT_SET_NO":"999","PERIAPSIS":"328.493","OBJECT_TYPE":"PAYLOAD","BSTAR":"0.00025652000000","MEAN_MOTION_DOT":"0.00046453","ECCENTRICITY":"0.00064400","MEAN_ELEMENT_THEORY":"SGP4","MEAN_ANOMALY":"199.5357","LAUNCH_DATE":"2020-06-04","TLE_LINE1":"1 45716U 20035BM  22002.88112170  .00046453  00000-0  25652-3 0  9992","SITE":"AFETR","CENTER_NAME":"EARTH","RCS_SIZE":"LARGE","OBJECT_NAME":"STARLINK-1439","GP_ID":"192942431","FILE":"3255249","INCLINATION":"52.9976","MEAN_MOTION":"15.79162273","TLE_LINE2":"2 45716  52.9976 234.0412 0006440 160.5909 199.5357 15.79162273 91487","APOAPSIS":"337.137","CLASSIFICATION_TYPE":"U","COUNTRY_CODE":"US","REV_AT_EPOCH":"9148","ARG_OF_PERICENTER":"160.5909","MEAN_MOTION_DDOT":"0.0000000000000"},{"EPHEMERIS_TYPE":"0","NORAD_CAT_ID":"45730","REF_FRAME":"TEME","OBJECT_ID":"2020-038A","TIME_SYSTEM":"UTC","RA_OF_ASC_NODE":"250.8173","PERIOD":"95.592","SEMIMAJOR_AXIS":"6925.358","DECAY_DATE":null,"EPOCH":"2022-01-02T20:36:55.273248","MEAN_MOTION_DOT":"0.00001619","BSTAR":"0.00012761000000","ECCENTRICITY":"0.00019300","ELEMENT_SET_NO":"999","PERIAPSIS":"545.886","OBJECT_TYPE":"PAYLOAD","CENTER_NAME":"EARTH","RCS_SIZE":"LARGE","OBJECT_NAME":"STARLINK-1461","GP_ID":"192941181","FILE":"3255249","MEAN_ELEMENT_THEORY":"SGP4","MEAN_ANOMALY":"298.9928","LAUNCH_DATE":"2020-06-13","TLE_LINE1":"1 45730U 20038A   22002.85897307  .00001619  00000-0  12761-3 0  9992","SITE":"AFETR","CLASSIFICATION_TYPE":"U","COUNTRY_CODE":"US","REV_AT_EPOCH":"8607","ARG_OF_PERICENTER":"61.1254","MEAN_MOTION_DDOT":"0.0000000000000","INCLINATION":"53.0533","MEAN_MOTION":"15.06397025","TLE_LINE2":"2 45730  53.0533 250.8173 0001930  61.1254 298.9928 15.06397025 86074","APOAPSIS":"548.559"},{"NORAD_CAT_ID":"45731","REF_FRAME":"TEME","EPHEMERIS_TYPE":"0","TIME_SYSTEM":"UTC","SEMIMAJOR_AXIS":"6925.351","PERIOD":"95.592","RA_OF_ASC_NODE":"251.0663","OBJECT_ID":"2020-038B","EPOCH":"2022-01-02T19:22:36.351552","DECAY_DATE":null,"BSTAR":"0.00012082000000","MEAN_MOTION_DOT":"0.00001518","ECCENTRICITY":"0.00020790","ELEMENT_SET_NO":"999","PERIAPSIS":"545.776","OBJECT_TYPE":"PAYLOAD","RCS_SIZE":"LARGE","CENTER_NAME":"EARTH","FILE":"3255249","GP_ID":"192941431","OBJECT_NAME":"STARLINK-1465","MEAN_ELEMENT_THEORY":"SGP4","MEAN_ANOMALY":"301.0075","LAUNCH_DATE":"2020-06-13","SITE":"AFETR","TLE_LINE1":"1 45731U 20038B   22002.80736518  .00001518  00000-0  12082-3 0  9998","COUNTRY_CODE":"US","CLASSIFICATION_TYPE":"U","MEAN_MOTION_DDOT":"0.0000000000000","REV_AT_EPOCH":"8605","ARG_OF_PERICENTER":"59.1119","INCLINATION":"53.0538","MEAN_MOTION":"15.06399364","APOAPSIS":"548.655","TLE_LINE2":"2 45731  53.0538 251.0663 0002079  59.1119 301.0075 15.06399364 86054"},{"TIME_SYSTEM":"UTC","RA_OF_ASC_NODE":"250.5116","PERIOD":"95.592","SEMIMAJOR_AXIS":"6925.343","OBJECT_ID":"2020-038C","EPOCH":"2022-01-02T22:17:45.173184","DECAY_DATE":null,"NORAD_CAT_ID":"45732","REF_FRAME":"TEME","EPHEMERIS_TYPE":"0","ELEMENT_SET_NO":"999","PERIAPSIS":"545.929","OBJECT_TYPE":"PAYLOAD","ECCENTRICITY":"0.00018470","MEAN_MOTION_DOT":"0.00001822","BSTAR":"0.00014117000000","MEAN_ELEMENT_THEORY":"SGP4","MEAN_ANOMALY":"297.8657","LAUNCH_DATE":"2020-06-13","SITE":"AFETR","TLE_LINE1":"1 45732U 20038C   22002.92899506  .00001822  00000-0  14117-3 0  9998","RCS_SIZE":"LARGE","CENTER_NAME":"EARTH","FILE":"3255249","GP_ID":"192942683","OBJECT_NAME":"STARLINK-1466","MEAN_MOTION":"15.06401934","INCLINATION":"53.0539","APOAPSIS":"548.487","TLE_LINE2":"2 45732  53.0539 250.5116 0001847  62.2519 297.8657 15.06401934 86071","COUNTRY_CODE":"US","CLASSIFICATION_TYPE":"U","MEAN_MOTION_DDOT":"0.0000000000000","REV_AT_EPOCH":"8607","ARG_OF_PERICENTER":"62.2519"},{"TLE_LINE1":"1 45733U 20038D   22002.87002122  .00001752  00000-0  13647-3 0  9992","SITE":"AFETR","LAUNCH_DATE":"2020-06-13","MEAN_ANOMALY":"299.5425","MEAN_ELEMENT_THEORY":"SGP4","OBJECT_NAME":"STARLINK-1467","FILE":"3255249","GP_ID":"192942432","CENTER_NAME":"EARTH","RCS_SIZE":"LARGE","TLE_LINE2":"2 45733  53.0545 250.7898 0002135  60.5777 299.5425 15.06402215 86060","APOAPSIS":"548.685","INCLINATION":"53.0545","MEAN_MOTION":"15.06402215","ARG_OF_PERICENTER":"60.5777","REV_AT_EPOCH":"8606","MEAN_MOTION_DDOT":"0.0000000000000","CLASSIFICATION_TYPE":"U","COUNTRY_CODE":"US","DECAY_DATE":null,"EPOCH":"2022-01-02T20:52:49.833408","OBJECT_ID":"2020-038D","PERIOD":"95.592","RA_OF_ASC_NODE":"250.7898","SEMIMAJOR_AXIS":"6925.342","TIME_SYSTEM":"UTC","EPHEMERIS_TYPE":"0","REF_FRAME":"TEME","NORAD_CAT_ID":"45733","PERIAPSIS":"545.728","OBJECT_TYPE":"PAYLOAD","ELEMENT_SET_NO":"999","BSTAR":"0.00013647000000","MEAN_MOTION_DOT":"0.00001752","ECCENTRICITY":"0.00021350"},{"INCLINATION":"53.0536","MEAN_MOTION":"15.06396333","TLE_LINE2":"2 45734  53.0536 250.5557 0001913  54.6432 305.4735 15.06396333 86071","APOAPSIS":"548.550","CLASSIFICATION_TYPE":"U","COUNTRY_CODE":"US","ARG_OF_PERICENTER":"54.6432","REV_AT_EPOCH":"8607","MEAN_MOTION_DDOT":"0.0000000000000","LAUNCH_DATE":"2020-06-13","MEAN_ANOMALY":"305.4735","MEAN_ELEMENT_THEORY":"SGP4","TLE_LINE1":"1 45734U 20038E   22002.91793983  .00002853  00000-0  21037-3 0  9995","SITE":"AFETR","CENTER_NAME":"EARTH","RCS_SIZE":"LARGE","OBJECT_NAME":"STARLINK-1468","FILE":"3255249","GP_ID":"192941682","ELEMENT_SET_NO":"999","OBJECT_TYPE":"PAYLOAD","PERIAPSIS":"545.900","MEAN_MOTION_DOT":"0.00002853","ECCENTRICITY":"0.00019130","BSTAR":"0.00021037000000","OBJECT_ID":"2020-038E","RA_OF_ASC_NODE":"250.5557","PERIOD":"95.592","SEMIMAJOR_AXIS":"6925.360","TIME_SYSTEM":"UTC","DECAY_DATE":null,"EPOCH":"2022-01-02T22:01:50.001312","EPHEMERIS_TYPE":"0","REF_FRAME":"TEME","NORAD_CAT_ID":"45734"},{"CLASSIFICATION_TYPE":"U","COUNTRY_CODE":"US","REV_AT_EPOCH":"8606","ARG_OF_PERICENTER":"55.8505","MEAN_MOTION_DDOT":"0.0000000000000","INCLINATION":"53.0547","MEAN_MOTION":"15.06392457","TLE_LINE2":"2 45735  53.0547 250.7003 0002312  55.8505 304.2703 15.06392457 86064","APOAPSIS":"548.838","CENTER_NAME":"EARTH","RCS_SIZE":"LARGE","OBJECT_NAME":"STARLINK-1471","FILE":"3255249","GP_ID":"192941932","MEAN_ELEMENT_THEORY":"SGP4","MEAN_ANOMALY":"304.2703","LAUNCH_DATE":"2020-06-13","TLE_LINE1":"1 45735U 20038F   22002.88845989  .00000233  00000-0  34583-4 0  9997","SITE":"AFETR","MEAN_MOTION_DOT":"0.00000233","ECCENTRICITY":"0.00023120","BSTAR":"0.00003458300000","ELEMENT_SET_NO":"999","OBJECT_TYPE":"PAYLOAD","PERIAPSIS":"545.636","EPHEMERIS_TYPE":"0","NORAD_CAT_ID":"45735","REF_FRAME":"TEME","OBJECT_ID":"2020-038F","TIME_SYSTEM":"UTC","PERIOD":"95.593","RA_OF_ASC_NODE":"250.7003","SEMIMAJOR_AXIS":"6925.372","DECAY_DATE":null,"EPOCH":"2022-01-02T21:19:22.934496"},{"INCLINATION":"53.0538","MEAN_MOTION":"15.06398401","TLE_LINE2":"2 45736  53.0538 250.4933 0001992  58.5850 301.5334 15.06398401 86076","APOAPSIS":"548.598","CLASSIFICATION_TYPE":"U","COUNTRY_CODE":"US","REV_AT_EPOCH":"8607","ARG_OF_PERICENTER":"58.5850","MEAN_MOTION_DDOT":"0.0000000000000","MEAN_ANOMALY":"301.5334","MEAN_ELEMENT_THEORY":"SGP4","LAUNCH_DATE":"2020-06-13","TLE_LINE1":"1 45736U 20038G   22002.93268955  .00002058  00000-0  15702-3 0  9994","SITE":"AFETR","CENTER_NAME":"EARTH","RCS_SIZE":"LARGE","OBJECT_NAME":"STARLINK-1472","FILE":"3255249","GP_ID":"192942183","ELEMENT_SET_NO":"999","OBJECT_TYPE":"PAYLOAD","PERIAPSIS":"545.839","BSTAR":"0.00015702000000","MEAN_MOTION_DOT":"0.00002058","ECCENTRICITY":"0.00019920","OBJECT_ID":"2020-038G","TIME_SYSTEM":"UTC","SEMIMAJOR_AXIS":"6925.353","PERIOD":"95.592","RA_OF_ASC_NODE":"250.4933","DECAY_DATE":null,"EPOCH":"2022-01-02T22:23:04.377120","EPHEMERIS_TYPE":"0","NORAD_CAT_ID":"45736","REF_FRAME":"TEME"},{"CENTER_NAME":"EARTH","RCS_SIZE":"LARGE","OBJECT_NAME":"STARLINK-1474","FILE":"3255248","GP_ID":"192916440","MEAN_ANOMALY":"305.2728","MEAN_ELEMENT_THEORY":"SGP4","LAUNCH_DATE":"2020-06-13","TLE_LINE1":"1 45738U 20038J   22002.21393731  .00000258  00000-0  36269-4 0  9990","SITE":"AFETR","CLASSIFICATION_TYPE":"U","COUNTRY_CODE":"US","REV_AT_EPOCH":"8596","ARG_OF_PERICENTER":"54.8446","MEAN_MOTION_DDOT":"0.0000000000000","MEAN_MOTION":"15.06388416","INCLINATION":"53.0528","TLE_LINE2":"2 45738  53.0528 253.7209 0001975  54.8446 305.2728 15.06388416 85960","APOAPSIS":"548.617","EPHEMERIS_TYPE":"0","NORAD_CAT_ID":"45738","REF_FRAME":"TEME","OBJECT_ID":"2020-038J","TIME_SYSTEM":"UTC","PERIOD":"95.593","SEMIMAJOR_AXIS":"6925.384","RA_OF_ASC_NODE":"253.7209","DECAY_DATE":null,"EPOCH":"2022-01-02T05:08:04.183584","ECCENTRICITY":"0.00019750","MEAN_MOTION_DOT":"0.00000258","BSTAR":"0.00003626900000","ELEMENT_SET_NO":"999","OBJECT_TYPE":"PAYLOAD","PERIAPSIS":"545.881"}];
